DUCHIFAT-1              
1 40021U 14033M   17346.46210165  .00000531  00000-0  60705-4 0  9995
2 40021  97.9163 259.8482 0014402  75.0338 285.2472 14.90132042189148
